<kml xmlns:xsd="https://schemas.opengis.net/kml/2.2.0/ogckml22.xsd" xmlns:xmlns="https://www.opengis.net/kml/2.2/" version="1.0">
  <Document>
    <name>meuse.grid</name>
    <open>1</open>
    <Folder>
      <name>SpatialGridDataFrame</name>
      <GroundOverlay>
        <name>dist2</name>
        <altitude>0</altitude>
        <altitudeMode>clampToGround</altitudeMode>
        <Icon>
          <href>dist2.png</href>
        </Icon>
        <LatLonBox>
          <north>50.9967481726387</north>
          <south>50.9535481726387</south>
          <east>5.76858678750884</east>
          <west>5.71842678750884</west>
        </LatLonBox>
      </GroundOverlay>
    </Folder>
    <ScreenOverlay>
      <name>Legend</name>
      <Icon>
        <href>dist2_legend.png</href>
      </Icon>
      <overlayXY x="0" y="1" xunits="fraction" yunits="fraction"/>
      <screenXY x="0" y="1" xunits="fraction" yunits="fraction"/>
    </ScreenOverlay>
  </Document>
</kml>